0 COSMOS 1892
1 18421U 87088A   13282.82344308  .00002479  00000-0  15867-3 0  8165
2 18421 082.5043 161.7022 0013736 239.9392 120.0475 15.08083576415020
0 COSMOS 1892
1 18421U 87088A   13284.15046636  .00003060  00000-0  19626-3 0  8171
2 18421 082.5042 160.4078 0013857 234.8281 125.1650 15.08089160415229
0 COSMOS 1892
1 18421U 87088A   13285.47748422  .00002493  00000-0  15956-3 0  8181
2 18421 082.5042 159.1134 0013939 229.4827 130.5188 15.08095233415420
0 COSMOS 1892
1 18421U 87088A   13286.53909449  .00002458  00000-0  15726-3 0  8194
2 18421 082.5040 158.0779 0014055 225.4214 134.5868 15.08099849415580
0 COSMOS 1892
1 18421U 87088A   13287.79975233  .00003478  00000-0  22320-3 0  8200
2 18421 082.5037 156.8482 0014183 220.5708 139.4464 15.08107182415776
0 COSMOS 1892
1 18421U 87088A   13289.12675260  .00003762  00000-0  24152-3 0  8218
2 18421 082.5030 155.5538 0014346 215.5719 144.4554 15.08117369415970
0 COSMOS 1892
1 18421U 87088A   13290.45374529  .00003917  00000-0  25145-3 0  8226
2 18421 082.5028 154.2592 0014392 210.7275 149.3112 15.08123389416174
0 COSMOS 1892
1 18421U 87088A   13292.11247752  .00002994  00000-0  19171-3 0  8235
2 18421 082.5018 152.6408 0014681 204.2406 155.8134 15.08132576416428
0 COSMOS 1892
1 18421U 87088A   13293.43945637  .00003322  00000-0  21288-3 0  8247
2 18421 082.5014 151.3461 0014843 199.2974 160.7695 15.08138570416621
0 COSMOS 1892
1 18421U 87088A   13294.76643017  .00003527  00000-0  22604-3 0  8252
2 18421 082.5012 150.0512 0015010 194.4182 165.6620 15.08146247416821
0 COSMOS 1892
1 18421U 87088A   13296.15974613  .00003727  00000-0  23892-3 0  8269
2 18421 082.5010 148.6915 0015171 189.3421 170.7527 15.08152710417035
